{"type":"FeatureCollection","features":[{"type":"Feature","properties":{"id":"cherkasy","iso":"UA-71","label_en":"Cherkasy Oblast","label_ru":"Черкасская область","macro":"center"},"geometry":{"type":"Polygon","coordinates":[[[32.069,50.239],[32.141,50.182],[32.245,50.158],[32.231,50.119],[32.374,49.994],[32.409,49.899],[32.366,49.874],[32.473,49.805],[32.566,49.763],[32.704,49.632],[32.754,49.547],[32.704,49.445],[32.759,49.176],[32.801,49.074],[32.845,49.001],[32.695,48.987],[32.608,48.944],[32.551,48.933],[32.463,49.01],[32.408,49.041],[32.342,49.073],[32.286,49.06],[32.214,49.025],[32.141,48.954],[32.091,48.913],[32.021,48.927],[31.875,48.862],[31.689,48.945],[31.531,48.911],[31.476,48.793],[31.333,48.724],[31.224,48.754],[30.991,48.749],[30.799,48.76],[30.668,48.752],[30.592,48.654],[30.574,48.565],[30.415,48.572],[30.247,48.478],[30.146,48.474],[29.966,48.457],[29.995,48.509],[30.015,48.551],[29.872,48.688],[29.884,48.743],[29.75,48.84],[29.72,48.893],[29.668,48.931],[29.669,48.981],[29.612,49.015],[29.652,49.08],[29.705,49.147],[29.675,49.202],[29.734,49.19],[29.877,49.203],[30.007,49.265],[30.116,49.277],[30.146,49.329],[30.169,49.284],[30.387,49.235],[30.445,49.35],[30.501,49.324],[30.623,49.359],[30.72,49.321],[30.848,49.35],[30.919,49.359],[31.023,49.462],[31.157,49.559],[31.127,49.603],[31.169,49.689],[31.182,49.77],[31.179,49.818],[31.357,49.9],[31.452,49.887],[31.489,49.844],[31.532,49.862],[31.586,49.896],[31.713,49.847],[31.793,49.939],[31.819,50.01],[31.858,50.079],[31.936,50.145],[31.986,50.198],[31.999,50.247],[32.069,50.239]]]}},{"type":"Feature","properties":{"id":"chernihiv","iso":"UA-74","label_en":"Chernihiv Oblast","label_ru":"Черниговская область","macro":"north"},"geometry":{"type":"Polygon","coordinates":[[[33.294,52.357],[33.359,52.248],[33.434,52.1],[33.476,52.056],[33.384,52.058],[33.36,51.986],[33.168,51.885],[33.099,51.727],[33.166,51.59],[33.156,51.54],[33.126,51.51],[33.113,51.44],[33.123,51.384],[33.039,51.389],[33.002,51.373],[33.056,51.327],[33.064,51.269],[33.023,51.195],[32.94,51.1],[33.065,51.066],[33.149,51.03],[33.157,51.0],[33.184,50.918],[33.123,50.785],[33.141,50.721],[33.105,50.645],[32.955,50.448],[32.828,50.391],[32.5,50.372],[32.45,50.408],[32.284,50.387],[32.079,50.374],[32.07,50.411],[32.01,50.444],[31.998,50.502],[32.022,50.548],[31.805,50.618],[31.784,50.579],[31.698,50.554],[31.632,50.529],[31.5,50.518],[31.328,50.508],[31.261,50.534],[31.18,50.588],[31.22,50.627],[31.16,50.71],[31.114,50.745],[31.042,50.756],[30.851,50.74],[30.741,50.757],[30.767,50.853],[30.659,50.931],[30.607,51.005],[30.521,51.008],[30.515,51.22],[30.559,51.269],[30.606,51.425],[30.584,51.494],[30.528,51.571],[30.555,51.64],[30.646,51.747],[30.695,51.847],[30.797,51.907],[30.879,51.982],[30.917,52.032],[31.269,52.061],[31.892,52.036],[32.338,52.225],[32.756,52.252],[33.087,52.311],[33.294,52.357]]]}},{"type":"Feature","properties":{"id":"chernivtsi","iso":"UA-77","label_en":"Chernivtsi Oblast","label_ru":"Черновицкая область","macro":"west"},"geometry":{"type":"Polygon","coordinates":[[[25.742,48.63],[25.863,48.601],[26.049,48.648],[26.114,48.57],[26.269,48.53],[26.553,48.466],[26.688,48.493],[26.722,48.535],[26.773,48.551],[26.859,48.54],[27.038,48.568],[27.237,48.569],[27.313,48.605],[27.504,48.472],[27.176,48.362],[27.016,48.359],[26.817,48.372],[26.736,48.292],[26.461,48.23],[26.255,48.072],[25.871,47.957],[24.929,47.714],[24.973,47.867],[24.933,47.955],[25.001,48.11],[25.141,48.186],[25.162,48.244],[25.555,48.392],[25.567,48.609],[25.723,48.659],[25.742,48.63]]]}},{"type":"Feature","properties":{"id":"crimea","iso":"UA-43","label_en":"Autonomous Republic of Crimea","label_ru":"Автономная Республика Крым","macro":"south"},"geometry":{"type":"Polygon","coordinates":[[[34.978,45.763],[35.773,45.392],[35.871,45.404],[36.284,45.477],[36.491,45.443],[36.586,45.334],[36.459,45.288],[36.368,45.049],[36.025,45.033],[35.591,45.12],[35.435,45.005],[35.256,44.959],[34.986,44.84],[34.721,44.811],[34.414,44.674],[34.264,44.532],[33.938,44.381],[33.59,44.49],[33.405,44.59],[33.516,44.634],[33.528,44.793],[33.603,44.993],[33.26,45.156],[33.043,45.285],[32.513,45.341],[32.75,45.56],[32.838,45.608],[33.195,45.765],[33.52,45.841],[33.67,45.859],[33.657,45.957],[33.642,46.022],[33.701,46.203],[34.08,46.117],[34.413,45.989],[34.588,45.996],[34.945,45.764],[34.978,45.763]]]}},{"type":"Feature","properties":{"id":"dnipro","iso":"UA-12","label_en":"Dnipropetrovsk Oblast","label_ru":"Днепропетровская область","macro":"east"},"geometry":{"type":"Polygon","coordinates":[[[34.984,49.164],[35.148,49.153],[35.298,49.063],[35.509,48.977],[35.656,48.958],[35.801,48.935],[35.952,48.969],[36.018,48.894],[36.012,48.851],[36.131,48.784],[36.132,48.727],[36.268,48.605],[36.273,48.538],[36.342,48.531],[36.471,48.646],[36.641,48.606],[36.783,48.605],[36.747,48.558],[36.81,48.569],[36.891,48.534],[36.857,48.489],[36.811,48.417],[36.82,48.314],[36.873,48.304],[36.924,48.215],[36.87,48.156],[36.851,48.04],[36.724,48.076],[36.575,48.058],[36.619,47.948],[36.542,47.91],[36.569,47.867],[36.336,47.831],[36.219,47.829],[36.181,47.86],[36.076,47.848],[36.083,47.868],[36.114,47.926],[36.068,47.949],[36.027,48.001],[36.045,48.043],[35.966,48.056],[35.829,48.067],[35.7,48.12],[35.522,48.079],[35.129,48.128],[34.943,48.081],[34.863,48.122],[34.845,48.073],[34.823,48.009],[34.857,47.978],[34.897,47.931],[34.818,47.867],[34.888,47.787],[34.945,47.743],[34.926,47.577],[34.73,47.539],[33.654,47.487],[33.579,47.528],[33.563,47.575],[33.485,47.533],[33.339,47.495],[33.193,47.554],[33.0,47.618],[32.984,47.71],[33.064,47.764],[33.079,47.889],[33.031,47.926],[33.104,48.057],[33.228,48.11],[33.262,48.142],[33.273,48.104],[33.363,48.179],[33.471,48.228],[33.519,48.302],[33.487,48.407],[33.461,48.484],[33.443,48.521],[33.617,48.583],[33.819,48.671],[33.686,48.702],[33.566,48.75],[33.6,48.789],[33.691,48.797],[33.76,48.807],[33.802,48.796],[33.833,48.765],[33.919,48.866],[34.224,48.747],[34.276,48.795],[34.313,48.861],[34.287,48.936],[34.363,48.999],[34.403,49.05],[34.726,49.146],[34.837,49.181],[34.879,49.144],[34.944,49.18],[34.984,49.164]]]}},{"type":"Feature","properties":{"id":"donetsk","iso":"UA-14","label_en":"Donetsk Oblast","label_ru":"Донецкая область","macro":"east"},"geometry":{"type":"Polygon","coordinates":[[[37.977,49.131],[38.062,49.106],[38.078,49.001],[38.04,48.975],[38.028,48.95],[38.231,48.854],[38.292,48.801],[38.268,48.73],[38.255,48.679],[38.256,48.601],[38.305,48.526],[38.302,48.459],[38.383,48.436],[38.457,48.386],[38.418,48.328],[38.461,48.272],[38.604,48.195],[38.819,48.085],[39.027,48.007],[39.036,47.857],[38.643,47.674],[38.203,47.335],[38.241,47.224],[38.13,47.075],[37.71,47.074],[37.208,46.934],[37.047,46.954],[37.116,46.97],[37.091,47.044],[37.003,47.077],[36.857,47.194],[36.934,47.254],[36.952,47.299],[37.074,47.304],[37.107,47.368],[37.159,47.35],[37.182,47.38],[37.219,47.458],[37.1,47.478],[36.826,47.596],[36.749,47.636],[36.747,47.675],[36.643,47.79],[36.533,47.884],[36.585,47.918],[36.604,47.96],[36.593,48.08],[36.742,48.056],[36.894,48.075],[36.89,48.175],[36.911,48.27],[36.863,48.317],[36.812,48.331],[36.846,48.437],[36.855,48.504],[36.886,48.577],[36.791,48.533],[36.773,48.586],[36.732,48.606],[36.69,48.778],[36.847,48.788],[37.024,48.759],[36.998,48.795],[37.069,48.824],[37.124,48.826],[37.186,48.867],[37.311,48.923],[37.295,48.971],[37.357,49.035],[37.563,49.175],[37.834,49.208],[37.9,49.206],[37.883,49.168],[37.977,49.131]]]}},{"type":"Feature","properties":{"id":"ivano_frankivsk","iso":"UA-26","label_en":"Ivano-Frankivsk Oblast","label_ru":"Ивано-Франковская область","macro":"west"},"geometry":{"type":"Polygon","coordinates":[[[24.655,49.497],[24.833,49.34],[24.837,49.266],[24.883,49.21],[24.859,49.155],[24.88,49.111],[24.982,49.099],[24.986,49.052],[24.894,49.054],[24.964,48.993],[25.153,48.873],[25.236,48.912],[25.328,48.815],[25.431,48.849],[25.482,48.814],[25.628,48.72],[25.567,48.631],[25.575,48.388],[25.196,48.257],[25.134,48.2],[25.046,48.125],[24.928,47.994],[24.969,47.899],[24.933,47.754],[24.679,47.84],[24.639,48.048],[24.525,48.178],[24.411,48.317],[24.332,48.375],[24.266,48.356],[24.131,48.426],[24.137,48.515],[23.964,48.479],[23.911,48.5],[23.877,48.557],[23.78,48.638],[23.574,48.716],[23.553,48.896],[23.694,49.095],[23.967,49.127],[24.216,49.15],[24.406,49.18],[24.387,49.232],[24.359,49.3],[24.284,49.293],[24.386,49.34],[24.426,49.449],[24.439,49.516],[24.646,49.498],[24.655,49.497]]]}},{"type":"Feature","properties":{"id":"kharkiv","iso":"UA-63","label_en":"Kharkiv Oblast","label_ru":"Харьковская область","macro":"east"},"geometry":{"type":"Polygon","coordinates":[[[38.0,49.9],[38.075,49.84],[38.045,49.788],[37.998,49.749],[37.978,49.722],[38.001,49.661],[37.944,49.597],[37.964,49.528],[37.9,49.448],[37.886,49.39],[37.93,49.296],[37.817,49.205],[37.585,49.176],[37.354,49.029],[37.303,48.966],[37.305,48.92],[37.181,48.861],[37.121,48.828],[37.068,48.819],[36.998,48.791],[37.014,48.76],[36.837,48.78],[36.69,48.769],[36.595,48.602],[36.382,48.581],[36.331,48.538],[36.277,48.544],[36.284,48.624],[36.135,48.734],[36.119,48.797],[36.0,48.854],[36.022,48.9],[35.931,48.976],[35.784,48.935],[35.619,48.959],[35.483,48.974],[35.291,49.071],[35.103,49.157],[34.99,49.177],[35.025,49.317],[35.188,49.292],[35.353,49.423],[35.323,49.483],[35.46,49.493],[35.393,49.553],[35.414,49.657],[35.373,49.685],[35.277,49.696],[35.192,49.77],[35.143,49.855],[34.955,49.89],[34.869,49.936],[34.917,50.132],[35.005,50.176],[35.06,50.214],[35.135,50.245],[35.254,50.251],[35.311,50.281],[35.385,50.294],[35.494,50.302],[35.578,50.324],[35.691,50.338],[35.837,50.423],[36.388,50.306],[36.532,50.229],[36.914,50.339],[37.568,50.313],[37.916,50.003],[38.0,49.9]]]}},{"type":"Feature","properties":{"id":"kherson","iso":"UA-65","label_en":"Kherson Oblast","label_ru":"Херсонская область","macro":"south"},"geometry":{"type":"Polygon","coordinates":[[[32.639,46.06],[32.619,46.06],[32.639,46.06]],[[35.039,46.086],[35.262,46.257],[35.039,46.086]],[[32.153,46.156],[31.538,46.326],[32.153,46.156]],[[33.333,47.496],[33.477,47.53],[33.503,47.567],[33.575,47.534],[33.643,47.488],[34.293,47.294],[34.373,47.274],[34.416,47.308],[34.483,47.297],[34.504,47.239],[34.497,47.156],[34.558,47.019],[34.605,46.962],[34.74,46.885],[34.797,46.832],[34.734,46.769],[34.683,46.722],[34.631,46.689],[34.733,46.662],[34.722,46.599],[34.858,46.542],[34.854,46.5],[35.023,46.469],[35.06,46.306],[34.887,46.243],[34.839,46.048],[34.802,45.901],[34.553,45.988],[34.331,46.061],[33.988,46.134],[33.614,46.226],[33.506,46.08],[33.301,46.094],[33.195,46.179],[32.899,46.115],[32.568,46.097],[32.247,46.171],[32.05,46.266],[31.767,46.318],[32.054,46.406],[32.091,46.513],[32.571,46.596],[32.269,46.588],[32.101,46.615],[32.032,46.73],[32.179,46.751],[32.317,46.796],[32.454,46.845],[32.536,46.849],[32.583,46.862],[32.695,46.83],[32.931,46.857],[32.811,46.873],[33.015,46.94],[32.95,46.97],[33.025,46.97],[33.059,47.021],[32.915,47.1],[33.021,47.176],[33.127,47.208],[33.106,47.288],[33.087,47.387],[33.031,47.417],[33.09,47.414],[33.12,47.449],[33.112,47.501],[33.089,47.548],[33.293,47.536],[33.333,47.496]]]}},{"type":"Feature","properties":{"id":"khmelnytskyi","iso":"UA-68","label_en":"Khmelnytskyi Oblast","label_ru":"Хмельницкая область","macro":"west"},"geometry":{"type":"Polygon","coordinates":[[[27.192,50.541],[27.301,50.48],[27.229,50.395],[27.303,50.345],[27.404,50.275],[27.486,50.24],[27.572,50.242],[27.606,50.207],[27.63,50.141],[27.621,50.082],[27.66,50.025],[27.548,50.008],[27.549,49.944],[27.598,49.877],[27.661,49.799],[27.822,49.708],[27.752,49.673],[27.809,49.618],[27.768,49.524],[27.758,49.474],[27.752,49.432],[27.809,49.386],[27.827,49.338],[27.871,49.286],[27.862,49.226],[27.889,49.163],[27.755,49.117],[27.601,49.152],[27.472,49.088],[27.424,49.034],[27.387,48.973],[27.375,48.924],[27.426,48.774],[27.393,48.684],[27.245,48.601],[27.141,48.579],[26.967,48.581],[26.808,48.609],[26.717,48.595],[26.614,48.54],[26.616,48.507],[26.422,48.53],[26.355,48.582],[26.317,48.636],[26.282,48.662],[26.244,48.712],[26.236,48.788],[26.231,48.823],[26.193,48.902],[26.191,48.96],[26.208,49.019],[26.231,49.084],[26.204,49.167],[26.227,49.238],[26.242,49.308],[26.227,49.401],[26.15,49.522],[26.221,49.617],[26.246,49.667],[26.231,49.734],[26.187,49.822],[26.168,49.883],[26.151,49.965],[26.215,50.014],[26.231,50.063],[26.269,50.1],[26.212,50.145],[26.434,50.247],[26.577,50.32],[26.694,50.407],[26.746,50.467],[26.8,50.493],[26.976,50.519],[27.084,50.58],[27.138,50.551],[27.192,50.541]]]}},{"type":"Feature","properties":{"id":"kyiv","iso":"UA-32","label_en":"Kiev Oblast","label_ru":"Киевская область","macro":"center"},"geometry":{"type":"Polygon","coordinates":[[[29.829,51.43],[30.205,51.466],[30.325,51.33],[30.532,51.245],[30.515,51.22],[30.521,51.008],[30.607,51.005],[30.659,50.931],[30.767,50.853],[30.741,50.757],[30.851,50.74],[31.042,50.756],[31.114,50.745],[31.16,50.71],[31.22,50.627],[31.18,50.588],[31.261,50.534],[31.328,50.508],[31.5,50.518],[31.632,50.529],[31.698,50.554],[31.784,50.579],[31.805,50.618],[32.022,50.548],[31.998,50.502],[32.01,50.444],[32.07,50.411],[32.079,50.374],[32.069,50.239],[31.975,50.224],[31.996,50.183],[31.91,50.141],[31.862,50.057],[31.806,49.998],[31.765,49.901],[31.606,49.863],[31.578,49.873],[31.514,49.865],[31.472,49.861],[31.447,49.901],[31.224,49.859],[31.196,49.807],[31.195,49.76],[31.175,49.672],[31.138,49.592],[31.11,49.533],[30.974,49.428],[30.894,49.348],[30.81,49.352],[30.689,49.352],[30.596,49.332],[30.486,49.33],[30.42,49.336],[30.36,49.241],[30.166,49.297],[30.108,49.305],[30.088,49.281],[29.932,49.251],[29.87,49.19],[29.735,49.208],[29.639,49.247],[29.523,49.326],[29.508,49.389],[29.542,49.495],[29.522,49.549],[29.512,49.621],[29.478,49.679],[29.418,49.71],[29.437,49.791],[29.509,49.817],[29.655,49.883],[29.674,50.012],[29.677,50.098],[29.719,50.163],[29.696,50.258],[29.632,50.319],[29.567,50.407],[29.426,50.426],[29.444,50.463],[29.5,50.501],[29.499,50.537],[29.5,50.626],[29.575,50.759],[29.508,50.859],[29.394,50.976],[29.463,51.013],[29.476,51.077],[29.381,51.134],[29.3,51.142],[29.387,51.306],[29.36,51.368],[29.568,51.45],[29.829,51.43]]]}},{"type":"Feature","properties":{"id":"kropyvnytskyi","iso":"UA-35","label_en":"Kirovohrad Oblast","label_ru":"Кировоградская область","macro":"center"},"geometry":{"type":"Polygon","coordinates":[[[33.383,48.94],[33.535,48.91],[33.652,48.899],[33.692,48.903],[33.876,48.897],[33.85,48.794],[33.804,48.786],[33.774,48.801],[33.698,48.785],[33.613,48.784],[33.558,48.762],[33.603,48.72],[33.77,48.681],[33.766,48.646],[33.478,48.541],[33.462,48.498],[33.475,48.412],[33.501,48.309],[33.489,48.231],[33.373,48.173],[33.292,48.138],[33.258,48.134],[33.226,48.133],[33.134,48.077],[33.019,47.974],[32.983,48.036],[32.882,48.026],[32.841,47.984],[32.783,47.989],[32.681,47.947],[32.711,47.91],[32.672,47.871],[32.65,47.834],[32.375,47.802],[32.218,47.813],[32.092,47.763],[31.968,47.809],[31.852,47.817],[31.864,47.877],[31.831,47.93],[31.71,48.017],[31.772,48.067],[31.667,48.103],[31.589,48.091],[31.528,48.078],[31.507,48.074],[31.419,48.109],[31.25,48.121],[31.2,48.165],[31.042,48.219],[30.92,48.161],[30.868,48.184],[30.8,48.169],[30.631,48.152],[30.335,48.142],[29.959,48.21],[29.872,48.181],[29.775,48.215],[29.786,48.252],[29.767,48.302],[29.82,48.382],[29.917,48.416],[29.994,48.419],[30.199,48.492],[30.387,48.534],[30.465,48.567],[30.576,48.604],[30.611,48.694],[30.733,48.765],[30.82,48.75],[31.055,48.728],[31.281,48.748],[31.367,48.733],[31.517,48.826],[31.561,48.926],[31.842,48.91],[31.907,48.871],[32.04,48.924],[32.129,48.913],[32.134,48.965],[32.248,49.053],[32.301,49.078],[32.359,49.061],[32.443,49.057],[32.511,48.957],[32.553,48.949],[32.652,48.956],[32.74,48.968],[32.855,49.018],[32.799,49.112],[32.775,49.23],[33.197,49.075],[33.338,49.029],[33.301,48.993],[33.379,48.94],[33.383,48.94]]]}},{"type":"Feature","properties":{"id":"luhansk","iso":"UA-09","label_en":"Luhansk Oblast","label_ru":"Луганская область","macro":"east"},"geometry":{"type":"Polygon","coordinates":[[[38.254,50.059],[38.619,49.951],[38.886,49.845],[39.261,49.745],[39.623,49.613],[40.018,49.608],[40.148,49.35],[39.931,49.101],[39.688,48.958],[39.95,48.853],[39.801,48.815],[39.809,48.584],[39.845,48.483],[39.957,48.293],[39.843,48.036],[39.79,47.938],[39.509,47.823],[39.039,47.857],[39.034,47.992],[38.805,48.068],[38.601,48.183],[38.566,48.278],[38.412,48.326],[38.481,48.358],[38.393,48.443],[38.31,48.45],[38.314,48.521],[38.27,48.574],[38.252,48.675],[38.274,48.727],[38.297,48.783],[38.243,48.847],[38.045,48.941],[38.025,48.975],[38.077,48.998],[38.063,49.095],[37.985,49.134],[37.894,49.187],[37.886,49.216],[37.926,49.302],[37.88,49.403],[37.91,49.455],[37.953,49.551],[37.947,49.602],[38.0,49.668],[37.946,49.715],[38.005,49.75],[38.002,49.812],[38.081,49.846],[38.09,49.928],[38.254,50.059]]]}},{"type":"Feature","properties":{"id":"lviv","iso":"UA-46","label_en":"Lviv Oblast","label_ru":"Львовская область","macro":"west"},"geometry":{"type":"Polygon","coordinates":[[[24.259,50.576],[24.35,50.61],[24.44,50.547],[24.538,50.507],[24.451,50.467],[24.515,50.406],[24.564,50.437],[24.639,50.397],[24.788,50.341],[24.941,50.369],[25.066,50.323],[25.191,50.29],[25.165,50.213],[25.368,50.013],[25.428,49.955],[25.387,49.914],[25.359,49.867],[25.099,49.817],[25.108,49.741],[25.034,49.717],[24.766,49.562],[24.673,49.496],[24.572,49.525],[24.422,49.471],[24.422,49.377],[24.291,49.314],[24.314,49.289],[24.356,49.273],[24.446,49.201],[24.356,49.182],[24.079,49.145],[23.855,49.106],[23.624,49.0],[23.57,48.857],[23.375,48.74],[23.322,48.753],[23.295,48.782],[23.129,48.861],[22.979,48.861],[22.889,48.959],[22.853,49.085],[22.687,49.173],[22.667,49.478],[22.898,49.777],[23.436,50.193],[23.696,50.377],[24.106,50.539],[24.171,50.621],[24.259,50.576]]]}},{"type":"Feature","properties":{"id":"mykolaiv","iso":"UA-48","label_en":"Mykolaiv Oblast","label_ru":"Николаевская область","macro":"south"},"geometry":{"type":"Polygon","coordinates":[[[31.567,46.55],[31.726,46.501],[31.54,46.57],[31.567,46.55]],[[31.229,48.157],[31.369,48.12],[31.444,48.116],[31.5,48.064],[31.542,48.091],[31.591,48.11],[31.692,48.095],[31.773,48.055],[31.755,47.963],[31.835,47.92],[31.842,47.853],[31.852,47.803],[32.022,47.81],[32.13,47.749],[32.234,47.82],[32.391,47.798],[32.676,47.842],[32.664,47.887],[32.716,47.919],[32.685,47.959],[32.797,47.976],[32.879,47.992],[32.894,48.035],[32.988,48.023],[33.045,47.954],[33.083,47.896],[33.06,47.776],[32.996,47.717],[33.018,47.632],[33.087,47.562],[33.112,47.51],[33.125,47.47],[33.124,47.416],[33.053,47.445],[33.043,47.39],[33.124,47.327],[33.136,47.224],[33.049,47.183],[32.918,47.11],[32.951,47.076],[33.026,46.978],[32.955,46.991],[33.009,46.949],[32.807,46.882],[32.935,46.865],[32.706,46.824],[32.641,46.86],[32.538,46.873],[32.463,46.834],[32.356,46.798],[32.198,46.772],[32.065,46.746],[31.955,46.831],[31.944,47.019],[31.834,47.179],[31.742,47.209],[31.852,47.061],[31.968,46.937],[31.902,46.677],[31.589,46.63],[31.56,46.749],[31.524,46.754],[31.462,46.749],[31.338,46.601],[31.178,46.721],[31.056,46.897],[31.114,46.975],[31.232,46.989],[31.297,47.063],[31.26,47.128],[31.187,47.158],[31.116,47.199],[31.168,47.255],[31.011,47.269],[30.857,47.5],[30.825,47.583],[30.717,47.62],[30.666,47.626],[30.544,47.618],[30.42,47.648],[30.414,47.72],[30.399,47.772],[30.298,47.945],[30.215,48.008],[30.211,48.068],[30.312,48.09],[30.342,48.16],[30.635,48.16],[30.802,48.165],[30.872,48.182],[30.923,48.164],[31.063,48.221],[31.223,48.161],[31.229,48.157]]]}},{"type":"Feature","properties":{"id":"odesa","iso":"UA-51","label_en":"Odessa Oblast","label_ru":"Одесская область","macro":"south"},"geometry":{"type":"Polygon","coordinates":[[[29.807,45.614],[30.076,45.792],[29.807,45.614]],[[29.954,48.21],[30.295,48.113],[30.282,48.089],[30.226,48.035],[30.256,47.984],[30.347,47.811],[30.378,47.752],[30.402,47.687],[30.476,47.622],[30.593,47.637],[30.695,47.588],[30.791,47.606],[30.872,47.522],[30.834,47.43],[31.07,47.26],[31.148,47.217],[31.13,47.174],[31.231,47.158],[31.295,47.105],[31.273,47.029],[31.144,46.97],[31.037,46.953],[31.13,46.841],[31.188,46.629],[30.867,46.556],[30.798,46.446],[30.679,46.328],[30.371,45.998],[30.097,45.824],[29.96,45.819],[29.93,45.759],[29.877,45.754],[29.843,45.664],[29.724,45.667],[29.653,45.814],[29.623,45.736],[29.681,45.555],[29.63,45.447],[29.694,45.456],[29.742,45.405],[29.728,45.237],[29.65,45.346],[29.29,45.425],[29.128,45.375],[28.91,45.287],[28.767,45.258],[28.33,45.323],[28.217,45.493],[28.504,45.566],[28.504,45.694],[28.669,45.806],[28.758,45.961],[28.951,46.243],[29.056,46.499],[29.184,46.367],[29.321,46.469],[29.481,46.456],[29.616,46.362],[29.8,46.398],[30.107,46.392],[29.989,46.499],[29.947,46.588],[29.93,46.782],[29.786,46.855],[29.567,46.935],[29.57,47.091],[29.53,47.124],[29.501,47.34],[29.364,47.322],[29.218,47.452],[29.117,47.533],[29.178,47.79],[29.148,47.955],[28.862,48.0],[29.05,48.093],[29.114,48.138],[29.45,48.114],[29.68,48.092],[29.692,48.181],[29.856,48.193],[29.948,48.213],[29.954,48.21]]]}},{"type":"Feature","properties":{"id":"poltava","iso":"UA-53","label_en":"Poltava Oblast","label_ru":"Полтавская область","macro":"center"},"geometry":{"type":"Polygon","coordinates":[[[33.731,50.462],[33.804,50.504],[34.055,50.471],[34.114,50.494],[34.195,50.531],[34.254,50.442],[34.367,50.325],[34.397,50.271],[34.449,50.24],[34.507,50.183],[34.457,50.142],[34.52,50.123],[34.697,50.148],[34.918,50.077],[34.874,49.932],[34.967,49.889],[35.148,49.855],[35.198,49.754],[35.28,49.693],[35.376,49.687],[35.413,49.654],[35.391,49.551],[35.443,49.493],[35.32,49.481],[35.353,49.42],[35.09,49.297],[34.973,49.281],[34.988,49.17],[34.894,49.151],[34.871,49.169],[34.752,49.16],[34.407,49.061],[34.346,49.0],[34.308,48.971],[34.306,48.87],[34.275,48.806],[34.288,48.773],[34.047,48.807],[33.745,48.916],[33.669,48.869],[33.571,48.909],[33.425,48.951],[33.349,48.957],[33.316,49.005],[33.342,49.044],[33.174,49.101],[32.697,49.45],[32.757,49.553],[32.701,49.661],[32.562,49.767],[32.469,49.807],[32.364,49.881],[32.407,49.916],[32.329,50.052],[32.234,50.12],[32.238,50.154],[32.137,50.187],[32.096,50.263],[32.204,50.349],[32.376,50.409],[32.477,50.406],[32.628,50.363],[32.878,50.397],[32.973,50.468],[33.223,50.536],[33.721,50.463],[33.731,50.462]]]}},{"type":"Feature","properties":{"id":"rivne","iso":"UA-56","label_en":"Rivne Oblast","label_ru":"Ровненская область","macro":"west"},"geometry":{"type":"Polygon","coordinates":[[[25.981,51.903],[26.666,51.801],[27.224,51.654],[27.459,51.617],[27.633,51.487],[27.602,51.406],[27.532,51.431],[27.506,51.358],[27.418,51.305],[27.43,51.208],[27.356,51.137],[27.295,51.044],[27.204,50.982],[27.218,50.919],[27.227,50.795],[27.235,50.673],[27.23,50.589],[27.126,50.582],[27.042,50.551],[26.901,50.532],[26.8,50.466],[26.728,50.439],[26.647,50.365],[26.504,50.27],[26.368,50.235],[26.202,50.209],[26.217,50.262],[26.054,50.264],[25.693,50.173],[25.581,50.146],[25.451,50.16],[25.46,50.096],[25.413,50.033],[25.193,50.103],[25.196,50.239],[25.169,50.295],[25.163,50.362],[25.168,50.399],[25.127,50.465],[25.123,50.527],[25.287,50.543],[25.286,50.611],[25.353,50.643],[25.44,50.654],[25.708,50.679],[25.804,50.633],[25.87,50.697],[25.886,50.799],[26.004,50.837],[26.014,50.903],[25.979,50.952],[26.089,51.011],[26.024,51.073],[25.952,51.114],[26.056,51.184],[25.857,51.299],[25.812,51.35],[25.756,51.375],[25.71,51.365],[25.602,51.354],[25.556,51.349],[25.564,51.469],[25.603,51.577],[25.558,51.612],[25.504,51.661],[25.643,51.827],[25.641,51.881],[25.981,51.903]]]}},{"type":"Feature","properties":{"id":"sumy","iso":"UA-59","label_en":"Sumy Oblast","label_ru":"Сумская область","macro":"north"},"geometry":{"type":"Polygon","coordinates":[[[34.246,51.875],[34.298,51.706],[34.215,51.532],[34.182,51.402],[34.186,51.249],[34.629,51.211],[35.019,51.205],[35.328,51.043],[35.329,50.929],[35.418,50.779],[35.48,50.467],[35.673,50.34],[35.595,50.326],[35.507,50.301],[35.39,50.3],[35.306,50.286],[35.249,50.26],[35.161,50.243],[35.082,50.209],[35.025,50.171],[34.945,50.159],[34.693,50.145],[34.502,50.119],[34.456,50.147],[34.508,50.187],[34.447,50.243],[34.394,50.267],[34.376,50.335],[34.252,50.448],[34.186,50.528],[34.108,50.492],[34.048,50.471],[33.805,50.502],[33.721,50.463],[33.223,50.536],[33.107,50.642],[33.135,50.716],[33.125,50.777],[33.182,50.912],[33.156,50.997],[33.17,51.058],[33.059,51.062],[32.94,51.097],[33.019,51.192],[33.07,51.257],[33.052,51.318],[33.007,51.366],[33.037,51.391],[33.119,51.378],[33.118,51.433],[33.123,51.51],[33.159,51.535],[33.171,51.587],[33.153,51.693],[33.142,51.881],[33.375,51.969],[33.379,52.057],[33.471,52.052],[33.436,52.097],[33.349,52.238],[33.419,52.338],[33.779,52.36],[34.056,52.17],[34.104,51.975],[34.246,51.875]]]}},{"type":"Feature","properties":{"id":"ternopil","iso":"UA-61","label_en":"Ternopil Oblast","label_ru":"Тернопольская область","macro":"west"},"geometry":{"type":"Polygon","coordinates":[[[26.161,50.241],[26.217,50.233],[26.233,50.152],[26.273,50.108],[26.228,50.066],[26.208,50.016],[26.152,49.968],[26.163,49.887],[26.186,49.827],[26.233,49.743],[26.219,49.682],[26.223,49.62],[26.164,49.544],[26.224,49.403],[26.239,49.312],[26.242,49.241],[26.199,49.175],[26.229,49.087],[26.201,49.03],[26.2,48.963],[26.192,48.906],[26.217,48.837],[26.239,48.791],[26.244,48.732],[26.277,48.663],[26.316,48.643],[26.346,48.588],[26.355,48.51],[26.102,48.607],[26.061,48.609],[25.944,48.589],[25.76,48.649],[25.646,48.697],[25.565,48.793],[25.44,48.87],[25.356,48.828],[25.25,48.859],[25.18,48.895],[25.052,48.974],[24.898,49.04],[24.966,49.048],[24.986,49.077],[24.902,49.121],[24.858,49.135],[24.876,49.195],[24.867,49.25],[24.825,49.322],[24.729,49.555],[24.994,49.686],[25.095,49.721],[25.078,49.784],[25.303,49.853],[25.397,49.893],[25.432,49.938],[25.379,49.992],[25.407,50.028],[25.454,50.088],[25.443,50.141],[25.567,50.141],[25.667,50.167],[26.022,50.253],[26.161,50.241]]]}},{"type":"Feature","properties":{"id":"vinnytsia","iso":"UA-05","label_en":"Vinnytsia Oblast","label_ru":"Винницкая область","macro":"center"},"geometry":{"type":"Polygon","coordinates":[[[29.023,49.587],[29.294,49.615],[29.511,49.64],[29.499,49.568],[29.559,49.502],[29.567,49.418],[29.5,49.366],[29.598,49.3],[29.675,49.202],[29.705,49.147],[29.652,49.08],[29.612,49.015],[29.669,48.981],[29.668,48.931],[29.72,48.893],[29.75,48.84],[29.884,48.743],[29.872,48.688],[30.015,48.551],[29.995,48.509],[29.966,48.457],[30.005,48.424],[29.92,48.41],[29.847,48.406],[29.777,48.321],[29.78,48.255],[29.784,48.224],[29.666,48.169],[29.656,48.094],[29.241,48.085],[29.086,48.146],[29.035,48.077],[28.831,48.031],[28.519,48.149],[28.437,48.15],[28.352,48.182],[28.189,48.223],[28.003,48.326],[27.605,48.484],[27.393,48.684],[27.426,48.774],[27.375,48.924],[27.387,48.973],[27.424,49.034],[27.472,49.088],[27.601,49.152],[27.755,49.117],[27.889,49.163],[27.862,49.226],[27.871,49.286],[27.827,49.338],[27.809,49.386],[27.752,49.432],[27.758,49.474],[27.768,49.524],[27.809,49.618],[27.752,49.673],[27.822,49.708],[27.957,49.767],[28.374,49.773],[28.566,49.788],[28.73,49.802],[28.824,49.878],[28.937,49.835],[28.942,49.788],[28.948,49.676],[28.995,49.62],[29.023,49.587]]]}},{"type":"Feature","properties":{"id":"volyn","iso":"UA-07","label_en":"Volyn Oblast","label_ru":"Волынская область","macro":"west"},"geometry":{"type":"Polygon","coordinates":[[[25.547,51.919],[25.63,51.867],[25.615,51.793],[25.509,51.621],[25.564,51.6],[25.569,51.546],[25.565,51.449],[25.569,51.336],[25.631,51.367],[25.73,51.385],[25.786,51.37],[25.813,51.323],[25.865,51.282],[26.063,51.17],[25.95,51.073],[26.058,51.054],[26.096,50.985],[25.982,50.935],[25.982,50.877],[25.988,50.824],[25.868,50.781],[25.851,50.677],[25.762,50.657],[25.656,50.707],[25.367,50.678],[25.379,50.62],[25.303,50.579],[25.148,50.553],[25.167,50.503],[25.093,50.465],[25.199,50.391],[25.063,50.295],[24.955,50.364],[24.798,50.343],[24.647,50.393],[24.57,50.432],[24.529,50.407],[24.454,50.464],[24.537,50.504],[24.446,50.546],[24.354,50.61],[24.259,50.583],[24.139,50.644],[23.998,50.769],[24.13,50.869],[23.916,51.021],[23.67,51.299],[23.689,51.416],[23.626,51.541],[23.913,51.599],[24.701,51.883],[25.547,51.919]]]}},{"type":"Feature","properties":{"id":"zakarpattia","iso":"UA-21","label_en":"Zakarpattia Oblast","label_ru":"Закарпатская область","macro":"west"},"geometry":{"type":"Polygon","coordinates":[[[22.664,49.041],[22.865,49.013],[22.926,48.904],[23.027,48.856],[23.202,48.777],[23.304,48.755],[23.366,48.764],[23.499,48.731],[23.76,48.647],[23.847,48.563],[23.917,48.515],[23.943,48.47],[24.134,48.531],[24.139,48.463],[24.208,48.351],[24.309,48.387],[24.385,48.335],[24.541,48.198],[24.607,48.089],[24.429,47.953],[24.025,47.953],[23.563,48.006],[23.393,47.994],[23.139,48.098],[22.916,47.993],[22.844,48.061],[22.6,48.101],[22.395,48.245],[22.291,48.358],[22.133,48.405],[22.282,48.662],[22.364,48.828],[22.449,48.971],[22.664,49.041]]]}},{"type":"Feature","properties":{"id":"zaporizhzhia","iso":"UA-23","label_en":"Zaporizhia Oblast","label_ru":"Запорожская область","macro":"east"},"geometry":{"type":"Polygon","coordinates":[[[35.515,48.079],[35.696,48.123],[35.816,48.066],[35.966,48.059],[36.04,48.044],[36.024,48.002],[36.063,47.95],[36.115,47.929],[36.088,47.867],[36.075,47.851],[36.173,47.855],[36.215,47.83],[36.331,47.826],[36.576,47.844],[36.661,47.757],[36.723,47.661],[36.749,47.605],[36.931,47.571],[37.141,47.455],[37.199,47.422],[37.182,47.353],[37.136,47.371],[37.088,47.34],[36.989,47.289],[36.928,47.304],[36.936,47.207],[36.94,47.15],[37.055,47.048],[37.117,47.018],[37.082,46.956],[37.008,46.918],[36.849,46.754],[36.802,46.725],[36.59,46.759],[36.258,46.622],[36.21,46.663],[35.51,46.457],[35.265,46.26],[35.277,46.441],[35.202,46.44],[35.059,46.324],[34.995,46.469],[34.853,46.501],[34.811,46.545],[34.722,46.603],[34.728,46.666],[34.629,46.693],[34.687,46.724],[34.741,46.775],[34.797,46.84],[34.729,46.917],[34.604,46.966],[34.557,47.052],[34.497,47.16],[34.505,47.247],[34.486,47.299],[34.414,47.305],[34.359,47.28],[34.292,47.298],[34.898,47.523],[34.9,47.592],[34.941,47.749],[34.887,47.794],[34.81,47.874],[34.912,47.938],[34.85,47.983],[34.815,48.012],[34.846,48.079],[34.87,48.119],[35.002,48.111],[35.165,48.119],[35.515,48.079]]]}},{"type":"Feature","properties":{"id":"zhytomyr","iso":"UA-18","label_en":"Zhytomyr Oblast","label_ru":"Житомирская область","macro":"north"},"geometry":{"type":"Polygon","coordinates":[[[28.347,51.525],[28.647,51.439],[28.772,51.511],[29.124,51.625],[29.285,51.392],[29.386,51.367],[29.299,51.245],[29.319,51.12],[29.427,51.095],[29.489,51.054],[29.453,50.971],[29.419,50.948],[29.536,50.781],[29.58,50.687],[29.488,50.585],[29.473,50.522],[29.485,50.466],[29.467,50.441],[29.489,50.422],[29.588,50.364],[29.669,50.282],[29.691,50.182],[29.734,50.126],[29.684,50.037],[29.727,49.929],[29.606,49.857],[29.472,49.803],[29.445,49.745],[29.478,49.709],[29.422,49.651],[29.272,49.6],[28.983,49.598],[28.979,49.649],[29.005,49.734],[28.939,49.812],[28.911,49.868],[28.795,49.849],[28.635,49.801],[28.431,49.808],[28.267,49.788],[27.648,49.813],[27.597,49.893],[27.58,49.948],[27.614,50.005],[27.663,50.053],[27.633,50.102],[27.65,50.153],[27.607,50.249],[27.557,50.223],[27.472,50.252],[27.406,50.289],[27.289,50.368],[27.256,50.451],[27.26,50.49],[27.23,50.589],[27.235,50.673],[27.227,50.795],[27.218,50.919],[27.204,50.982],[27.295,51.044],[27.356,51.137],[27.43,51.208],[27.418,51.305],[27.506,51.358],[27.532,51.431],[27.602,51.406],[27.633,51.487],[27.796,51.542],[28.09,51.562],[28.27,51.594],[28.347,51.525]]]}}]}